start=new Date('2023-03-26T00:00:00.000Z').valueOf();
sats=[{"COUNTRY_CODE":"US","NORAD_CAT_ID":"55400","SEMIMAJOR_AXIS":"6737.182","OBJECT_NAME":"STARLINK-5632","MEAN_ANOMALY":"92.7177","EPHEMERIS_TYPE":"0","BSTAR":"0.00029234000000","MEAN_ELEMENT_THEORY":"SGP4","TIME_SYSTEM":"UTC","SITE":"AFWTR","REV_AT_EPOCH":"949","CENTER_NAME":"EARTH","MEAN_MOTION":"15.69948158","CLASSIFICATION_TYPE":"U","RCS_SIZE":"LARGE","FILE":"3871104","PERIAPSIS":"356.625","OBJECT_TYPE":"PAYLOAD","MEAN_MOTION_DOT":"0.00035122","APOAPSIS":"361.470","ECCENTRICITY":"0.00035960","PERIOD":"91.723","REF_FRAME":"TEME","TLE_LINE1":"1 55400U 23014K   23084.88482712  .00035122  00000-0  29234-3 0  9997","INCLINATION":"69.9985","RA_OF_ASC_NODE":"300.1196","GP_ID":"228873953","TLE_LINE2":"2 55400  69.9985 300.1196 0003596 267.3607  92.7177 15.69948158  9497","LAUNCH_DATE":"2023-01-31","MEAN_MOTION_DDOT":"0.0000000000000","EPOCH":"2023-03-25T21:14:09.063168","ARG_OF_PERICENTER":"267.3607","DECAY_DATE":null,"OBJECT_ID":"2023-014K","ELEMENT_SET_NO":"999"},{"CENTER_NAME":"EARTH","CLASSIFICATION_TYPE":"U","MEAN_MOTION":"15.69942267","RCS_SIZE":"LARGE","FILE":"3871104","PERIAPSIS":"356.778","BSTAR":"0.00018762000000","TIME_SYSTEM":"UTC","MEAN_ELEMENT_THEORY":"SGP4","SITE":"AFWTR","REV_AT_EPOCH":"949","OBJECT_NAME":"STARLINK-5076","MEAN_ANOMALY":"104.2874","EPHEMERIS_TYPE":"0","COUNTRY_CODE":"US","NORAD_CAT_ID":"55401","SEMIMAJOR_AXIS":"6737.199","EPOCH":"2023-03-25T21:13:32.632608","ARG_OF_PERICENTER":"255.7945","DECAY_DATE":null,"OBJECT_ID":"2023-014L","ELEMENT_SET_NO":"999","TLE_LINE2":"2 55401  69.9995 300.1203 0003394 255.7945 104.2874 15.69942267  9498","LAUNCH_DATE":"2023-01-31","MEAN_MOTION_DDOT":"0.0000000000000","REF_FRAME":"TEME","TLE_LINE1":"1 55401U 23014L   23084.88440547  .00022424  00000-0  18762-3 0  9993","RA_OF_ASC_NODE":"300.1203","INCLINATION":"69.9995","GP_ID":"228874203","MEAN_MOTION_DOT":"0.00022424","OBJECT_TYPE":"PAYLOAD","APOAPSIS":"361.351","PERIOD":"91.723","ECCENTRICITY":"0.00033940"},{"OBJECT_NAME":"STARLINK-5071","MEAN_ANOMALY":"96.4920","EPHEMERIS_TYPE":"0","COUNTRY_CODE":"US","SEMIMAJOR_AXIS":"6737.239","NORAD_CAT_ID":"55402","CENTER_NAME":"EARTH","MEAN_MOTION":"15.69928459","CLASSIFICATION_TYPE":"U","RCS_SIZE":"LARGE","FILE":"3871104","PERIAPSIS":"356.855","BSTAR":"0.00001560500000","TIME_SYSTEM":"UTC","MEAN_ELEMENT_THEORY":"SGP4","REV_AT_EPOCH":"949","SITE":"AFWTR","REF_FRAME":"TEME","TLE_LINE1":"1 55402U 23014M   23084.88502624  .00001664  00000-0  15605-4 0  9996","INCLINATION":"69.9988","RA_OF_ASC_NODE":"300.1193","GP_ID":"228874955","MEAN_MOTION_DOT":"0.00001664","OBJECT_TYPE":"PAYLOAD","APOAPSIS":"361.353","PERIOD":"91.724","ECCENTRICITY":"0.00033380","ARG_OF_PERICENTER":"263.5895","EPOCH":"2023-03-25T21:14:26.267136","DECAY_DATE":null,"OBJECT_ID":"2023-014M","ELEMENT_SET_NO":"999","TLE_LINE2":"2 55402  69.9988 300.1193 0003338 263.5895  96.4920 15.69928459  9499","LAUNCH_DATE":"2023-01-31","MEAN_MOTION_DDOT":"0.0000000000000"},{"LAUNCH_DATE":"2023-01-31","TLE_LINE2":"2 55403  69.9989 300.1200 0002597 265.2834  94.8065 15.69958385  9491","MEAN_MOTION_DDOT":"0.0000000000000","DECAY_DATE":null,"ARG_OF_PERICENTER":"265.2834","EPOCH":"2023-03-25T21:13:58.378944","ELEMENT_SET_NO":"999","OBJECT_ID":"2023-014N","OBJECT_TYPE":"PAYLOAD","MEAN_MOTION_DOT":"0.00011370","ECCENTRICITY":"0.00025970","PERIOD":"91.722","APOAPSIS":"360.768","REF_FRAME":"TEME","GP_ID":"228874705","INCLINATION":"69.9989","RA_OF_ASC_NODE":"300.1200","TLE_LINE1":"1 55403U 23014N   23084.88470346  .00011370  00000-0  96069-4 0  9990","TIME_SYSTEM":"UTC","MEAN_ELEMENT_THEORY":"SGP4","BSTAR":"0.00009606900000","REV_AT_EPOCH":"949","SITE":"AFWTR","CENTER_NAME":"EARTH","PERIAPSIS":"357.268","FILE":"3871104","RCS_SIZE":"LARGE","MEAN_MOTION":"15.69958385","CLASSIFICATION_TYPE":"U","COUNTRY_CODE":"US","SEMIMAJOR_AXIS":"6737.153","NORAD_CAT_ID":"55403","EPHEMERIS_TYPE":"0","MEAN_ANOMALY":"94.8065","OBJECT_NAME":"STARLINK-5597"},{"TIME_SYSTEM":"UTC","MEAN_ELEMENT_THEORY":"SGP4","BSTAR":"0.00075663000000","SITE":"AFWTR","REV_AT_EPOCH":"949","CENTER_NAME":"EARTH","RCS_SIZE":"LARGE","FILE":"3871104","PERIAPSIS":"356.702","MEAN_MOTION":"15.69990219","CLASSIFICATION_TYPE":"U","COUNTRY_CODE":"US","NORAD_CAT_ID":"55404","SEMIMAJOR_AXIS":"6737.062","EPHEMERIS_TYPE":"0","OBJECT_NAME":"STARLINK-5607","MEAN_ANOMALY":"92.2287","LAUNCH_DATE":"2023-01-31","TLE_LINE2":"2 55404  69.9982 300.1189 0003303 267.8531  92.2287 15.69990219  9499","MEAN_MOTION_DDOT":"0.0000000000000","DECAY_DATE":null,"ARG_OF_PERICENTER":"267.8531","EPOCH":"2023-03-25T21:14:45.608640","ELEMENT_SET_NO":"999","OBJECT_ID":"2023-014P","OBJECT_TYPE":"PAYLOAD","MEAN_MOTION_DOT":"0.00092020","PERIOD":"91.720","ECCENTRICITY":"0.00033030","APOAPSIS":"361.152","REF_FRAME":"TEME","GP_ID":"228873453","TLE_LINE1":"1 55404U 23014P   23084.88525010  .00092020  00000-0  75663-3 0  9997","INCLINATION":"69.9982","RA_OF_ASC_NODE":"300.1189"},{"DECAY_DATE":null,"ARG_OF_PERICENTER":"287.3001","EPOCH":"2023-03-25T21:14:17.629728","ELEMENT_SET_NO":"999","OBJECT_ID":"2023-014Q","LAUNCH_DATE":"2023-01-31","TLE_LINE2":"2 55405  69.9990 300.1179 0003695 287.3001  72.7791 15.69998263  9491","MEAN_MOTION_DDOT":"0.0000000000000","REF_FRAME":"TEME","GP_ID":"228873703","TLE_LINE1":"1 55405U 23014Q   23084.88492627  .00085869  00000-0  70641-3 0  9999","RA_OF_ASC_NODE":"300.1179","INCLINATION":"69.9990","MEAN_MOTION_DOT":"0.00085869","OBJECT_TYPE":"PAYLOAD","ECCENTRICITY":"0.00036950","PERIOD":"91.720","APOAPSIS":"361.393","CENTER_NAME":"EARTH","RCS_SIZE":"LARGE","FILE":"3871104","PERIAPSIS":"356.415","MEAN_MOTION":"15.69998263","CLASSIFICATION_TYPE":"U","TIME_SYSTEM":"UTC","MEAN_ELEMENT_THEORY":"SGP4","BSTAR":"0.00070641000000","SITE":"AFWTR","REV_AT_EPOCH":"949","EPHEMERIS_TYPE":"0","OBJECT_NAME":"STARLINK-5623","MEAN_ANOMALY":"72.7791","COUNTRY_CODE":"US","SEMIMAJOR_AXIS":"6737.039","NORAD_CAT_ID":"55405"},{"DECAY_DATE":null,"EPOCH":"2023-03-25T21:15:02.683872","ARG_OF_PERICENTER":"268.3367","ELEMENT_SET_NO":"999","OBJECT_ID":"2023-014R","LAUNCH_DATE":"2023-01-31","TLE_LINE2":"2 55406  69.9999 300.1217 0002928 268.3367  91.7494 15.69947378  9498","MEAN_MOTION_DDOT":"0.0000000000000","REF_FRAME":"TEME","GP_ID":"228874455","RA_OF_ASC_NODE":"300.1217","INCLINATION":"69.9999","TLE_LINE1":"1 55406U 23014R   23084.88544773  .00022563  00000-0  18874-3 0  9992","OBJECT_TYPE":"PAYLOAD","MEAN_MOTION_DOT":"0.00022563","PERIOD":"91.723","ECCENTRICITY":"0.00029280","APOAPSIS":"361.022","CENTER_NAME":"EARTH","PERIAPSIS":"357.077","RCS_SIZE":"LARGE","FILE":"3871104","MEAN_MOTION":"15.69947378","CLASSIFICATION_TYPE":"U","TIME_SYSTEM":"UTC","MEAN_ELEMENT_THEORY":"SGP4","BSTAR":"0.00018874000000","SITE":"AFWTR","REV_AT_EPOCH":"949","EPHEMERIS_TYPE":"0","MEAN_ANOMALY":"91.7494","OBJECT_NAME":"STARLINK-5630","COUNTRY_CODE":"US","SEMIMAJOR_AXIS":"6737.185","NORAD_CAT_ID":"55406"},{"COUNTRY_CODE":"US","NORAD_CAT_ID":"55407","SEMIMAJOR_AXIS":"6737.166","MEAN_ANOMALY":"90.3348","OBJECT_NAME":"STARLINK-5019","EPHEMERIS_TYPE":"0","BSTAR":"0.00009438500000","TIME_SYSTEM":"UTC","MEAN_ELEMENT_THEORY":"SGP4","SITE":"AFWTR","REV_AT_EPOCH":"949","CENTER_NAME":"EARTH","CLASSIFICATION_TYPE":"U","MEAN_MOTION":"15.69953814","PERIAPSIS":"356.474","FILE":"3871104","RCS_SIZE":"LARGE","MEAN_MOTION_DOT":"0.00011166","OBJECT_TYPE":"PAYLOAD","APOAPSIS":"361.588","PERIOD":"91.722","ECCENTRICITY":"0.00037950","REF_FRAME":"TEME","INCLINATION":"69.9982","RA_OF_ASC_NODE":"300.1206","TLE_LINE1":"1 55407U 23014S   23084.88513197  .00011166  00000-0  94385-4 0  9998","GP_ID":"228875206","TLE_LINE2":"2 55407  69.9982 300.1206 0003795 269.7413  90.3348 15.69953814  9494","LAUNCH_DATE":"2023-01-31","MEAN_MOTION_DDOT":"0.0000000000000","EPOCH":"2023-03-25T21:14:35.402208","ARG_OF_PERICENTER":"269.7413","DECAY_DATE":null,"OBJECT_ID":"2023-014S","ELEMENT_SET_NO":"999"},{"REF_FRAME":"TEME","GP_ID":"228873954","TLE_LINE1":"1 55408U 23014T   23084.88558075  .00038284  00000-0  31884-3 0  9997","INCLINATION":"69.9992","RA_OF_ASC_NODE":"300.1220","OBJECT_TYPE":"PAYLOAD","MEAN_MOTION_DOT":"0.00038284","ECCENTRICITY":"0.00032510","PERIOD":"91.725","APOAPSIS":"361.334","DECAY_DATE":null,"ARG_OF_PERICENTER":"270.2787","EPOCH":"2023-03-25T21:15:14.176800","ELEMENT_SET_NO":"999","OBJECT_ID":"2023-014T","LAUNCH_DATE":"2023-01-31","TLE_LINE2":"2 55408  69.9992 300.1220 0003251 270.2787  89.8036 15.69914416  9492","MEAN_MOTION_DDOT":"0.0000000000000","EPHEMERIS_TYPE":"0","OBJECT_NAME":"STARLINK-5092","MEAN_ANOMALY":"89.8036","COUNTRY_CODE":"US","NORAD_CAT_ID":"55408","SEMIMAJOR_AXIS":"6737.279","CENTER_NAME":"EARTH","FILE":"3871104","RCS_SIZE":"LARGE","PERIAPSIS":"356.954","MEAN_MOTION":"15.69914416","CLASSIFICATION_TYPE":"U","MEAN_ELEMENT_THEORY":"SGP4","TIME_SYSTEM":"UTC","BSTAR":"0.00031884000000","REV_AT_EPOCH":"949","SITE":"AFWTR"},{"EPHEMERIS_TYPE":"0","OBJECT_NAME":"STARLINK-5047","MEAN_ANOMALY":"120.2975","SEMIMAJOR_AXIS":"6737.141","NORAD_CAT_ID":"55409","COUNTRY_CODE":"US","RCS_SIZE":"LARGE","FILE":"3871104","PERIAPSIS":"357.073","CLASSIFICATION_TYPE":"U","MEAN_MOTION":"15.69962457","CENTER_NAME":"EARTH","SITE":"AFWTR","REV_AT_EPOCH":"947","TIME_SYSTEM":"UTC","MEAN_ELEMENT_THEORY":"SGP4","BSTAR":"0.00003338900000","GP_ID":"228874204","TLE_LINE1":"1 55409U 23014U   23084.75788576  .00003810  00000-0  33389-4 0  9995","RA_OF_ASC_NODE":"300.4811","INCLINATION":"69.9977","REF_FRAME":"TEME","ECCENTRICITY":"0.00028700","PERIOD":"91.722","APOAPSIS":"360.940","MEAN_MOTION_DOT":"0.00003810","OBJECT_TYPE":"PAYLOAD","ELEMENT_SET_NO":"999","OBJECT_ID":"2023-014U","DECAY_DATE":null,"ARG_OF_PERICENTER":"239.7936","EPOCH":"2023-03-25T18:11:21.329664","MEAN_MOTION_DDOT":"0.0000000000000","LAUNCH_DATE":"2023-01-31","TLE_LINE2":"2 55409  69.9977 300.4811 0002870 239.7936 120.2975 15.69962457  9475"}];
